{"type":"Feature","geometry":{"type":"Polygon","coordinates":[[[22.53845,49.03247],[22.43134,48.94596],[22.37915,48.83399],[22.33795,48.70546],[22.26105,48.64198],[22.15942,48.52388],[22.15393,48.4055],[22.28027,48.35442],[22.3764,48.24845],[22.54669,48.19173],[22.67029,48.09826],[22.8186,48.11293],[22.87903,48.03953],[22.8653,47.98073],[22.96692,48.00646],[23.07129,48.01565],[23.16742,48.10193],[23.49701,47.96786],[23.59589,48.0083],[23.76617,47.99544],[23.87604,47.95682],[24.03534,47.95314],[24.15619,47.93659],[24.19464,48.03586],[24.36218,48.26126],[24.50226,48.26857],[24.36493,48.37997],[24.25507,48.36172],[24.15894,48.40003],[24.13147,48.51842],[23.96667,48.47474],[23.91174,48.53843],[23.84033,48.59478],[23.67828,48.6692],[23.56293,48.72359],[23.37341,48.75438],[23.2196,48.76705],[23.15094,48.82857],[23.10699,48.85929],[22.98615,48.84122],[22.90924,48.89903],[22.8653,48.96038],[22.91748,48.97841],[22.88452,49.00905],[22.74719,49.04507],[22.61536,49.08826],[22.56317,49.08826],[22.53845,49.03247]]]},"properties":{"admin_level":"4","boundary":"administrative","flag":"http://upload.wikimedia.org/wikipedia/commons/3/3c/Flag_of_Transcarpathian_Oblast.svg","iso3166-2":"UA-21","koatuu":"2100000000","name":"Закарпатська область","name:ar":"زاكارباتيا أوبلاست","name:be":"Закарпацкая вобласць","name:be-x-old":"Закарпацкая вобласьць","name:bg":"Закарпатска област","name:bs":"Zakarpatska oblast","name:ca":"Transcarpàcia","name:crh":"Zakarpattâ vilâyeti","name:cs":"Zakarpatská oblast","name:de":"Oblast Transkarpatien","name:en":"Zakarpattia Oblast","name:eo":"Transkarpata provinco","name:es":"Óblast de Zakarpatia","name:et":"Taga-Karpaatia","name:eu":"Transkarpatiako oblasta","name:fi":"Taka-Karpatian alue","name:fr":"Oblast de Transcarpatie","name:he":"זקרפטיה","name:hr":"Zakarpatska oblast","name:hu":"Kárpátalja","name:hy":"Անդրկարպատյան մարզ","name:id":"Oblast Zakarpattia","name:it":"Oblast' di Transcarpazia","name:ja":"ザカルパッチャ州","name:ka":"ტრანსკარპატიის ოლქი","name:ko":"자카르파탸 주","name:la":"Ruthenia Subcarpathanea","name:lt":"Užkarpatės sritis","name:lv":"Aizkarpatu apgabals","name:mk":"Закарпатска област","name:mr":"झाकारपत्तिया ओब्लास्त","name:nl":"Oblast Transkarpatië","name:nn":"Zakarpattja oblast","name:no":"Zakarpattja oblast","name:os":"Фæскарпаты облæст","name:pl":"Obwód zakarpacki","name:pnb":"زاکارپاتیا اوبلاست","name:pt":"Oblast da Transcarpátia","name:ro":"Regiunea Transcarpatia","name:ru":"Закарпатская область","name:rue":"Закарпатьска область","name:sco":"Zakarpattia Oblast","name:simple":"Zakarpattia Oblast","name:sk":"Zakarpatská oblasť","name:sr":"Закарпатска област","name:sv":"Zakarpatska oblast","name:szl":"Zakarpacki uobwůd","name:tr":"Zakarpatya Oblastı","name:uk":"Закарпатська область","name:uz":"Zakarpatye viloyati","name:war":"Zakarpattia Oblast","name:xmf":"ტრანსკარპატიაშ ოლქი","name:zh":"外喀爾巴阡州","name:zh-min-nan":"Zakarpattya séng","type":"boundary","wikipedia":"uk:Закарпатська_область"}}